{
  "type": "FeatureCollection",
  "features": [
    {
      "type": "Feature",
      "properties": {
        "norad_id": 36744,
        "name": "COMS 1",
        "group": "weather",
        "lat": 3.5832919552041234,
        "lon": 133.2882087222441,
        "alt_km": 35789.35759249008,
        "timestamp": "2025-12-13T18:50:04.071061+00:00",
        "meta_object_name": "COMS 1",
        "meta_object_id": "2010-032A",
        "meta_epoch": "2025-12-12T15:21:38.695680",
        "meta_mean_motion": 1.0026781,
        "meta_eccentricity": 7.129e-05,
        "meta_inclination": 4.3408,
        "meta_ra_of_asc_node": 78.0019,
        "meta_arg_of_pericenter": 200.2431,
        "meta_mean_anomaly": 161.9119,
        "meta_ephemeris_type": 0,
        "meta_classification_type": "U",
        "meta_norad_cat_id": 36744,
        "meta_element_set_no": 999,
        "meta_rev_at_epoch": 4922,
        "meta_bstar": 0,
        "meta_mean_motion_dot": -3.34e-06,
        "meta_mean_motion_ddot": 0,
        "tle_line1": "1 36744U 10032A   25346.64003120 -.00000334  00000+0  00000+0 0  9995",
        "tle_line2": "2 36744   4.3408  78.0019 0000712 200.2431 161.9119  1.00267810 49222"
      },
      "geometry": {
        "type": "Point",
        "coordinates": [
          133.2882087222441,
          3.5832919552041234
        ]
      }
    },
    {
      "type": "Feature",
      "properties": {
        "norad_id": 37214,
        "name": "FENGYUN 3B",
        "group": "weather",
        "lat": -45.11690094466924,
        "lon": 36.916103925627276,
        "alt_km": 837.5975138182139,
        "timestamp": "2025-12-13T18:50:04.071073+00:00",
        "meta_object_name": "FENGYUN 3B",
        "meta_object_id": "2010-059A",
        "meta_epoch": "2025-12-13T07:27:17.720928",
        "meta_mean_motion": 14.14790851,
        "meta_eccentricity": 0.00220376,
        "meta_inclination": 98.991,
        "meta_ra_of_asc_node": 27.2915,
        "meta_arg_of_pericenter": 356.2037,
        "meta_mean_anomaly": 64.6019,
        "meta_ephemeris_type": 0,
        "meta_classification_type": "U",
        "meta_norad_cat_id": 37214,
        "meta_element_set_no": 999,
        "meta_rev_at_epoch": 78114,
        "meta_bstar": 0.00017382104,
        "meta_mean_motion_dot": 2.9e-06,
        "meta_mean_motion_ddot": 0,
        "tle_line1": "1 37214U 10059A   25347.31062177  .00000290  00000+0  17382-3 0  9994",
        "tle_line2": "2 37214  98.9910  27.2915 0022037 356.2037  64.6019 14.14790851781148"
      },
      "geometry": {
        "type": "Point",
        "coordinates": [
          36.916103925627276,
          -45.11690094466924
        ]
      }
    },
    {
      "type": "Feature",
      "properties": {
        "norad_id": 37849,
        "name": "SUOMI NPP",
        "group": "weather",
        "lat": 6.846654704868314,
        "lon": 106.17979655276079,
        "alt_km": 828.0343715751078,
        "timestamp": "2025-12-13T18:50:04.071086+00:00",
        "meta_object_name": "SUOMI NPP",
        "meta_object_id": "2011-061A",
        "meta_epoch": "2025-12-13T07:52:20.889984",
        "meta_mean_motion": 14.19514539,
        "meta_eccentricity": 0.0002266,
        "meta_inclination": 98.7773,
        "meta_ra_of_asc_node": 284.6643,
        "meta_arg_of_pericenter": 119.2463,
        "meta_mean_anomaly": 240.894,
        "meta_ephemeris_type": 0,
        "meta_classification_type": "U",
        "meta_norad_cat_id": 37849,
        "meta_element_set_no": 999,
        "meta_rev_at_epoch": 73207,
        "meta_bstar": 0.0001014103,
        "meta_mean_motion_dot": 1.7e-06,
        "meta_mean_motion_ddot": 0,
        "tle_line1": "1 37849U 11061A   25347.32801956  .00000170  00000+0  10141-3 0  9992",
        "tle_line2": "2 37849  98.7773 284.6643 0002266 119.2463 240.8940 14.19514539732077"
      },
      "geometry": {
        "type": "Point",
        "coordinates": [
          106.17979655276079,
          6.846654704868314
        ]
      }
    },
    {
      "type": "Feature",
      "properties": {
        "norad_id": 38552,
        "name": "METEOSAT-10 (MSG-3)",
        "group": "weather",
        "lat": -3.5118908269165634,
        "lon": 5.49409288520382,
        "alt_km": 35783.39860033762,
        "timestamp": "2025-12-13T18:50:04.071098+00:00",
        "meta_object_name": "METEOSAT-10 (MSG-3)",
        "meta_object_id": "2012-035B",
        "meta_epoch": "2025-12-12T23:45:12.989952",
        "meta_mean_motion": 1.00275102,
        "meta_eccentricity": 7.862e-05,
        "meta_inclination": 4.2297,
        "meta_ra_of_asc_node": 61.7246,
        "meta_arg_of_pericenter": 255.1243,
        "meta_mean_anomaly": 121.5641,
        "meta_ephemeris_type": 0,
        "meta_classification_type": "U",
        "meta_norad_cat_id": 38552,
        "meta_element_set_no": 999,
        "meta_rev_at_epoch": 4899,
        "meta_bstar": 0,
        "meta_mean_motion_dot": 6e-08,
        "meta_mean_motion_ddot": 0,
        "tle_line1": "1 38552U 12035B   25346.98973368  .00000006  00000+0  00000+0 0  9991",
        "tle_line2": "2 38552   4.2297  61.7246 0000786 255.1243 121.5641  1.00275102 48996"
      },
      "geometry": {
        "type": "Point",
        "coordinates": [
          5.49409288520382,
          -3.5118908269165634
        ]
      }
    },
    {
      "type": "Feature",
      "properties": {
        "norad_id": 38771,
        "name": "METOP-B",
        "group": "weather",
        "lat": 31.737410125699903,
        "lon": 32.30412822403011,
        "alt_km": 819.4232294974572,
        "timestamp": "2025-12-13T18:50:04.071110+00:00",
        "meta_object_name": "METOP-B",
        "meta_object_id": "2012-049A",
        "meta_epoch": "2025-12-13T05:10:05.847744",
        "meta_mean_motion": 14.21408711,
        "meta_eccentricity": 0.00029319,
        "meta_inclination": 98.68,
        "meta_ra_of_asc_node": 37.1661,
        "meta_arg_of_pericenter": 143.1168,
        "meta_mean_anomaly": 217.0211,
        "meta_ephemeris_type": 0,
        "meta_classification_type": "U",
        "meta_norad_cat_id": 38771,
        "meta_element_set_no": 999,
        "meta_rev_at_epoch": 68684,
        "meta_bstar": 0.00012548221,
        "meta_mean_motion_dot": 2.31e-06,
        "meta_mean_motion_ddot": 0,
        "tle_line1": "1 38771U 12049A   25347.21534546  .00000231  00000+0  12548-3 0  9991",
        "tle_line2": "2 38771  98.6800  37.1661 0002931 143.1168 217.0211 14.21408711686847"
      },
      "geometry": {
        "type": "Point",
        "coordinates": [
          32.30412822403011,
          31.737410125699903
        ]
      }
    },
    {
      "type": "Feature",
      "properties": {
        "norad_id": 39216,
        "name": "INSAT-3D",
        "group": "weather",
        "lat": 1.1122603664855697,
        "lon": 134.7248099484581,
        "alt_km": 35789.13844507276,
        "timestamp": "2025-12-13T18:50:04.071123+00:00",
        "meta_object_name": "INSAT-3D",
        "meta_object_id": "2013-038B",
        "meta_epoch": "2025-12-13T05:30:09.949248",
        "meta_mean_motion": 1.00269791,
        "meta_eccentricity": 0.00014274,
        "meta_inclination": 1.4462,
        "meta_ra_of_asc_node": 84.989,
        "meta_arg_of_pericenter": 164.7653,
        "meta_mean_anomaly": 44.4821,
        "meta_ephemeris_type": 0,
        "meta_classification_type": "U",
        "meta_norad_cat_id": 39216,
        "meta_element_set_no": 999,
        "meta_rev_at_epoch": 4521,
        "meta_bstar": 0,
        "meta_mean_motion_dot": -3.25e-06,
        "meta_mean_motion_ddot": 0,
        "tle_line1": "1 39216U 13038B   25347.22928182 -.00000325  00000+0  00000+0 0  9990",
        "tle_line2": "2 39216   1.4462  84.9890 0001427 164.7653  44.4821  1.00269791 45214"
      },
      "geometry": {
        "type": "Point",
        "coordinates": [
          134.7248099484581,
          1.1122603664855697
        ]
      }
    },
    {
      "type": "Feature",
      "properties": {
        "norad_id": 39260,
        "name": "FENGYUN 3C",
        "group": "weather",
        "lat": -75.32398266277244,
        "lon": 110.70517192226984,
        "alt_km": 842.8605159063227,
        "timestamp": "2025-12-13T18:50:04.071134+00:00",
        "meta_object_name": "FENGYUN 3C",
        "meta_object_id": "2013-052A",
        "meta_epoch": "2025-12-13T05:44:47.248800",
        "meta_mean_motion": 14.15696622,
        "meta_eccentricity": 0.00143236,
        "meta_inclination": 98.4763,
        "meta_ra_of_asc_node": 324.8944,
        "meta_arg_of_pericenter": 194.556,
        "meta_mean_anomaly": 165.5204,
        "meta_ephemeris_type": 0,
        "meta_classification_type": "U",
        "meta_norad_cat_id": 39260,
        "meta_element_set_no": 999,
        "meta_rev_at_epoch": 63225,
        "meta_bstar": 0.00011721707,
        "meta_mean_motion_dot": 1.89e-06,
        "meta_mean_motion_ddot": 0,
        "tle_line1": "1 39260U 13052A   25347.23943575  .00000189  00000+0  11722-3 0  9993",
        "tle_line2": "2 39260  98.4763 324.8944 0014323 194.5560 165.5204 14.15696622632259"
      },
      "geometry": {
        "type": "Point",
        "coordinates": [
          110.70517192226984,
          -75.32398266277244
        ]
      }
    }
  ]
}